[{"OBJECT_NAME":"CORVUS BC4","OBJECT_ID":"2018-099K","EPOCH":"2026-03-09T15:49:18.108768","MEAN_MOTION":15.1161571,"ECCENTRICITY":0.00080458,"INCLINATION":97.4206,"RA_OF_ASC_NODE":114.5457,"ARG_OF_PERICENTER":356.5821,"MEAN_ANOMALY":3.5354,"EPHEMERIS_TYPE":0,"CLASSIFICATION_TYPE":"U","NORAD_CAT_ID":43767,"ELEMENT_SET_NO":999,"REV_AT_EPOCH":39736,"BSTAR":0.00033979895,"MEAN_MOTION_DOT":5.714e-5,"MEAN_MOTION_DDOT":0},{"OBJECT_NAME":"STARLINK-4517","OBJECT_ID":"2022-097C","EPOCH":"2026-03-09T10:54:53.801568","MEAN_MOTION":15.08837888,"ECCENTRICITY":0.0001338,"INCLINATION":53.2169,"RA_OF_ASC_NODE":125.176,"ARG_OF_PERICENTER":95.9433,"MEAN_ANOMALY":264.1712,"EPHEMERIS_TYPE":0,"CLASSIFICATION_TYPE":"U","NORAD_CAT_ID":53390,"ELEMENT_SET_NO":999,"REV_AT_EPOCH":19878,"BSTAR":-8.993758e-6,"MEAN_MOTION_DOT":-4.31e-6,"MEAN_MOTION_DDOT":0}]
